SPOT 6                  
1 38755U 12047A   26095.27385056  .00000598  00000+0  13852-3 0  9993
2 38755  98.2170 163.4181 0001454  84.3566 275.7799 14.58565225722423
PLEIADES 1B             
1 39019U 12068A   26095.22468648  .00000581  00000+0  13484-3 0  9997
2 39019  98.1976 171.2711 0001267  77.8059 282.3283 14.58551916710210
GOKTURK 2               
1 39030U 12073A   26095.24780670  .00000948  00000+0  14635-3 0  9996
2 39030  97.6864 296.3163 0001145 109.2691 250.8643 14.75472609713752
LANDSAT 8               
1 39084U 13008A   26095.23530985  .00000524  00000+0  12640-3 0  9999
2 39084  98.1873 166.5189 0001212  90.7572 269.3765 14.57111180687271
SARAL                   
1 39086U 13009A   26095.27687780  .00000157  00000+0  73620-4 0  9990
2 39086  98.5564 282.7619 0002746 121.5982 238.5470 14.32837944685167
GAOFEN-1                
1 39150U 13018A   26095.28089553  .00001063  00000+0  15939-3 0  9992
2 39150  97.9134 168.8165 0018149 137.5411 222.7207 14.76530648697483
VNREDSAT 1              
1 39160U 13021B   26095.27481556  .00001463  00000+0  28186-3 0  9997
2 39160  97.9156 151.4605 0001348  81.6501 278.4855 14.64933235689616
ARIRANG-5 (KOMPSAT-5)   
1 39227U 13042A   26095.27293814  .00001873  00000+0  13808-3 0  9992
2 39227  97.6197 282.9893 0004337  42.6356 317.5206 15.04511819692891
SKYSAT-A                
1 39418U 13066C   26095.09951154  .00004888  00000+0  28250-3 0  9994
2 39418  97.3891 146.8178 0021102 203.2114 156.8166 15.12557210677437
DUBAISAT-2              
1 39419U 13066D   26095.23883041  .00009908  00000+0  61835-3 0  9994
2 39419  97.4556  87.3344 0009467 288.1236  71.8962 15.09661646675385
GPM-CORE                
1 39574U 14009C   26095.25148429  .00016747  00000+0  36471-3 0  9997
2 39574  64.9731 192.4914 0012969 255.1445 104.8259 15.44338608686543
SENTINEL-1A             
1 39634U 14016A   26095.27037777  .00000137  00000+0  38804-4 0  9996
2 39634  98.1808 103.8597 0001377  82.3649 277.7707 14.59197844639382
KAZEOSAT 1              
1 39731U 14024A   26095.30584859  .00000391  00000+0  13203-3 0  9992
2 39731  98.3242 169.5544 0001148 102.1304 258.0015 14.42051253628051
ALOS-2                  
1 39766U 14029A   26095.23088630  .00000404  00000+0  60955-4 0  9995
2 39766  97.9198 193.4419 0001803  96.8964 263.2453 14.79452015640790
KAZEOSAT 2              
1 40010U 14033A   26095.27662381  .00001050  00000+0  12779-3 0  9997
2 40010  97.5462 298.7187 0008016 190.0576 170.0481 14.85385098638138
HODOYOSHI-4             
1 40011U 14033B   26095.27590250  .00002364  00000+0  26226-3 0  9994
2 40011  97.5455 283.6223 0023523 183.5588 176.5466 14.87948739637968
DEIMOS-2                
1 40013U 14033D   26095.22778131  .00001141  00000+0  11352-3 0  9993
2 40013  97.5931 332.2487 0001329 107.6559 252.4807 14.93524306626831
