[{"OBJECT_NAME":"SPOT 6","OBJECT_ID":"2012-047A","EPOCH":"2026-04-05T06:34:20.688384","MEAN_MOTION":14.58565225,"ECCENTRICITY":0.00014542,"INCLINATION":98.217,"RA_OF_ASC_NODE":163.4181,"ARG_OF_PERICENTER":84.3566,"MEAN_ANOMALY":275.7799,"EPHEMERIS_TYPE":0,"CLASSIFICATION_TYPE":"U","NORAD_CAT_ID":38755,"ELEMENT_SET_NO":999,"REV_AT_EPOCH":72242,"BSTAR":0.00013851732,"MEAN_MOTION_DOT":5.98e-6,"MEAN_MOTION_DDOT":0},{"OBJECT_NAME":"PLEIADES 1B","OBJECT_ID":"2012-068A","EPOCH":"2026-04-05T05:23:32.911872","MEAN_MOTION":14.58551916,"ECCENTRICITY":0.00012673,"INCLINATION":98.1976,"RA_OF_ASC_NODE":171.2711,"ARG_OF_PERICENTER":77.8059,"MEAN_ANOMALY":282.3283,"EPHEMERIS_TYPE":0,"CLASSIFICATION_TYPE":"U","NORAD_CAT_ID":39019,"ELEMENT_SET_NO":999,"REV_AT_EPOCH":71021,"BSTAR":0.00013484438,"MEAN_MOTION_DOT":5.81e-6,"MEAN_MOTION_DDOT":0},{"OBJECT_NAME":"GOKTURK 2","OBJECT_ID":"2012-073A","EPOCH":"2026-04-05T05:56:50.498880","MEAN_MOTION":14.75472609,"ECCENTRICITY":0.00011451,"INCLINATION":97.6864,"RA_OF_ASC_NODE":296.3163,"ARG_OF_PERICENTER":109.2691,"MEAN_ANOMALY":250.8643,"EPHEMERIS_TYPE":0,"CLASSIFICATION_TYPE":"U","NORAD_CAT_ID":39030,"ELEMENT_SET_NO":999,"REV_AT_EPOCH":71375,"BSTAR":0.00014635188,"MEAN_MOTION_DOT":9.48e-6,"MEAN_MOTION_DDOT":0},{"OBJECT_NAME":"LANDSAT 8","OBJECT_ID":"2013-008A","EPOCH":"2026-04-05T05:38:50.771040","MEAN_MOTION":14.5711118,"ECCENTRICITY":0.00012123,"INCLINATION":98.1873,"RA_OF_ASC_NODE":166.5189,"ARG_OF_PERICENTER":90.7572,"MEAN_ANOMALY":269.3765,"EPHEMERIS_TYPE":0,"CLASSIFICATION_TYPE":"U","NORAD_CAT_ID":39084,"ELEMENT_SET_NO":999,"REV_AT_EPOCH":68727,"BSTAR":0.00012640166,"MEAN_MOTION_DOT":5.24e-6,"MEAN_MOTION_DDOT":0},{"OBJECT_NAME":"SARAL","OBJECT_ID":"2013-009A","EPOCH":"2026-04-05T06:38:42.241920","MEAN_MOTION":14.32837944,"ECCENTRICITY":0.00027464,"INCLINATION":98.5564,"RA_OF_ASC_NODE":282.7619,"ARG_OF_PERICENTER":121.5982,"MEAN_ANOMALY":238.547,"EPHEMERIS_TYPE":0,"CLASSIFICATION_TYPE":"U","NORAD_CAT_ID":39086,"ELEMENT_SET_NO":999,"REV_AT_EPOCH":68516,"BSTAR":7.3619518e-5,"MEAN_MOTION_DOT":1.57e-6,"MEAN_MOTION_DDOT":0},{"OBJECT_NAME":"GAOFEN-1","OBJECT_ID":"2013-018A","EPOCH":"2026-04-05T06:44:29.373792","MEAN_MOTION":14.76530648,"ECCENTRICITY":0.00181495,"INCLINATION":97.9134,"RA_OF_ASC_NODE":168.8165,"ARG_OF_PERICENTER":137.5411,"MEAN_ANOMALY":222.7207,"EPHEMERIS_TYPE":0,"CLASSIFICATION_TYPE":"U","NORAD_CAT_ID":39150,"ELEMENT_SET_NO":999,"REV_AT_EPOCH":69748,"BSTAR":0.00015939298,"MEAN_MOTION_DOT":1.063e-5,"MEAN_MOTION_DDOT":0},{"OBJECT_NAME":"VNREDSAT 1","OBJECT_ID":"2013-021B","EPOCH":"2026-04-05T06:35:44.064384","MEAN_MOTION":14.64933235,"ECCENTRICITY":0.0001348,"INCLINATION":97.9156,"RA_OF_ASC_NODE":151.4605,"ARG_OF_PERICENTER":81.6501,"MEAN_ANOMALY":278.4855,"EPHEMERIS_TYPE":0,"CLASSIFICATION_TYPE":"U","NORAD_CAT_ID":39160,"ELEMENT_SET_NO":999,"REV_AT_EPOCH":68961,"BSTAR":0.00028186308,"MEAN_MOTION_DOT":1.463e-5,"MEAN_MOTION_DDOT":0},{"OBJECT_NAME":"ARIRANG-5 (KOMPSAT-5)","OBJECT_ID":"2013-042A","EPOCH":"2026-04-05T06:33:01.855296","MEAN_MOTION":15.04511819,"ECCENTRICITY":0.00043378,"INCLINATION":97.6197,"RA_OF_ASC_NODE":282.9893,"ARG_OF_PERICENTER":42.6356,"MEAN_ANOMALY":317.5206,"EPHEMERIS_TYPE":0,"CLASSIFICATION_TYPE":"U","NORAD_CAT_ID":39227,"ELEMENT_SET_NO":999,"REV_AT_EPOCH":69289,"BSTAR":0.00013807849,"MEAN_MOTION_DOT":1.873e-5,"MEAN_MOTION_DDOT":0},{"OBJECT_NAME":"SKYSAT-A","OBJECT_ID":"2013-066C","EPOCH":"2026-04-05T02:23:17.797056","MEAN_MOTION":15.1255721,"ECCENTRICITY":0.00211022,"INCLINATION":97.3891,"RA_OF_ASC_NODE":146.8178,"ARG_OF_PERICENTER":203.2114,"MEAN_ANOMALY":156.8166,"EPHEMERIS_TYPE":0,"CLASSIFICATION_TYPE":"U","NORAD_CAT_ID":39418,"ELEMENT_SET_NO":999,"REV_AT_EPOCH":67743,"BSTAR":0.0002825028,"MEAN_MOTION_DOT":4.888e-5,"MEAN_MOTION_DDOT":0},{"OBJECT_NAME":"DUBAISAT-2","OBJECT_ID":"2013-066D","EPOCH":"2026-04-05T05:43:54.947424","MEAN_MOTION":15.09661646,"ECCENTRICITY":0.00094673,"INCLINATION":97.4556,"RA_OF_ASC_NODE":87.3344,"ARG_OF_PERICENTER":288.1236,"MEAN_ANOMALY":71.8962,"EPHEMERIS_TYPE":0,"CLASSIFICATION_TYPE":"U","NORAD_CAT_ID":39419,"ELEMENT_SET_NO":999,"REV_AT_EPOCH":67538,"BSTAR":0.00061835346,"MEAN_MOTION_DOT":9.908e-5,"MEAN_MOTION_DDOT":0},{"OBJECT_NAME":"GPM-CORE","OBJECT_ID":"2014-009C","EPOCH":"2026-04-05T06:02:08.242656","MEAN_MOTION":15.44338608,"ECCENTRICITY":0.00129692,"INCLINATION":64.9731,"RA_OF_ASC_NODE":192.4914,"ARG_OF_PERICENTER":255.1445,"MEAN_ANOMALY":104.8259,"EPHEMERIS_TYPE":0,"CLASSIFICATION_TYPE":"U","NORAD_CAT_ID":39574,"ELEMENT_SET_NO":999,"REV_AT_EPOCH":68654,"BSTAR":0.00036471398,"MEAN_MOTION_DOT":0.00016747,"MEAN_MOTION_DDOT":0},{"OBJECT_NAME":"SENTINEL-1A","OBJECT_ID":"2014-016A","EPOCH":"2026-04-05T06:29:20.639328","MEAN_MOTION":14.59197844,"ECCENTRICITY":0.00013771,"INCLINATION":98.1808,"RA_OF_ASC_NODE":103.8597,"ARG_OF_PERICENTER":82.3649,"MEAN_ANOMALY":277.7707,"EPHEMERIS_TYPE":0,"CLASSIFICATION_TYPE":"U","NORAD_CAT_ID":39634,"ELEMENT_SET_NO":999,"REV_AT_EPOCH":63938,"BSTAR":3.8803716e-5,"MEAN_MOTION_DOT":1.37e-6,"MEAN_MOTION_DDOT":0},{"OBJECT_NAME":"KAZEOSAT 1","OBJECT_ID":"2014-024A","EPOCH":"2026-04-05T07:20:25.318176","MEAN_MOTION":14.42051253,"ECCENTRICITY":0.00011489,"INCLINATION":98.3242,"RA_OF_ASC_NODE":169.5544,"ARG_OF_PERICENTER":102.1304,"MEAN_ANOMALY":258.0015,"EPHEMERIS_TYPE":0,"CLASSIFICATION_TYPE":"U","NORAD_CAT_ID":39731,"ELEMENT_SET_NO":999,"REV_AT_EPOCH":62805,"BSTAR":0.00013202559,"MEAN_MOTION_DOT":3.91e-6,"MEAN_MOTION_DDOT":0},{"OBJECT_NAME":"ALOS-2","OBJECT_ID":"2014-029A","EPOCH":"2026-04-05T05:32:28.576320","MEAN_MOTION":14.79452015,"ECCENTRICITY":0.00018038,"INCLINATION":97.9198,"RA_OF_ASC_NODE":193.4419,"ARG_OF_PERICENTER":96.8964,"MEAN_ANOMALY":263.2453,"EPHEMERIS_TYPE":0,"CLASSIFICATION_TYPE":"U","NORAD_CAT_ID":39766,"ELEMENT_SET_NO":999,"REV_AT_EPOCH":64079,"BSTAR":6.0955169e-5,"MEAN_MOTION_DOT":4.04e-6,"MEAN_MOTION_DDOT":0},{"OBJECT_NAME":"KAZEOSAT 2","OBJECT_ID":"2014-033A","EPOCH":"2026-04-05T06:38:20.297184","MEAN_MOTION":14.85385098,"ECCENTRICITY":0.00080162,"INCLINATION":97.5462,"RA_OF_ASC_NODE":298.7187,"ARG_OF_PERICENTER":190.0576,"MEAN_ANOMALY":170.0481,"EPHEMERIS_TYPE":0,"CLASSIFICATION_TYPE":"U","NORAD_CAT_ID":40010,"ELEMENT_SET_NO":999,"REV_AT_EPOCH":63813,"BSTAR":0.000127792,"MEAN_MOTION_DOT":1.05e-5,"MEAN_MOTION_DDOT":0},{"OBJECT_NAME":"HODOYOSHI-4","OBJECT_ID":"2014-033B","EPOCH":"2026-04-05T06:37:17.976000","MEAN_MOTION":14.87948739,"ECCENTRICITY":0.00235233,"INCLINATION":97.5455,"RA_OF_ASC_NODE":283.6223,"ARG_OF_PERICENTER":183.5588,"MEAN_ANOMALY":176.5466,"EPHEMERIS_TYPE":0,"CLASSIFICATION_TYPE":"U","NORAD_CAT_ID":40011,"ELEMENT_SET_NO":999,"REV_AT_EPOCH":63796,"BSTAR":0.00026226474,"MEAN_MOTION_DOT":2.364e-5,"MEAN_MOTION_DDOT":0},{"OBJECT_NAME":"DEIMOS-2","OBJECT_ID":"2014-033D","EPOCH":"2026-04-05T05:28:00.305184","MEAN_MOTION":14.93524306,"ECCENTRICITY":0.00013291,"INCLINATION":97.5931,"RA_OF_ASC_NODE":332.2487,"ARG_OF_PERICENTER":107.6559,"MEAN_ANOMALY":252.4807,"EPHEMERIS_TYPE":0,"CLASSIFICATION_TYPE":"U","NORAD_CAT_ID":40013,"ELEMENT_SET_NO":999,"REV_AT_EPOCH":62683,"BSTAR":0.00011352075,"MEAN_MOTION_DOT":1.141e-5,"MEAN_MOTION_DDOT":0}]
